DONGPO 02               
1 53452U 22098J   26175.10189821  .00110825  00000+0  71131-3 0  9993
2 53452  97.5525 306.8966 0003135 253.9110 106.1810 15.75917621215880
DONGPO 01               
1 53453U 22098K   26175.16592566  .00105298  00000+0  74699-3 0  9994
2 53453  97.5591 307.4745 0002309 225.5178 134.5897 15.73611609215859
STARLINK-4400           
1 53468U 22099D   26175.09007340 -.00000428  00000+0 -25739-4 0  9997
2 53468  97.3286 293.7814 0000762 101.6852 258.4461 15.05657325211985
STARLINK-4621           
1 53676U 22105AE  26175.15930456  .00000497  00000+0  38371-4 0  9996
2 53676  97.3217  53.8555 0002413  86.7188 273.4315 15.05651992209253
SHERPA-LTC2             
1 53754U 22107BG  26175.19046735  .00003268  00000+0  17619-3 0  9997
2 53754  53.2348 190.6821 0393268 245.7042 110.2392 14.69766552203579
CENTISPACE-1 S3         
1 53757U 22108A   26175.18442541  .00000361  00000+0  11065-3 0  9995
2 53757  53.5339  26.3250 0009815  13.9179 346.2065 14.61260246202550
CENTISPACE-1 S4         
1 53758U 22108B   26175.09707671  .00000470  00000+0  13094-3 0  9999
2 53758  53.5314  24.1714 0008985   2.4072 357.6945 14.61942979202572
BLUEWALKER-3            
1 53807U 22111AL  26174.93665894  .00006385  00000+0  17653-3 0  9996
2 53807  53.2297   2.2829 0005787 181.9520 178.1464 15.38345711211248
YUNHAI-1 03             
1 53877U 22115A   26175.31085429  .00000315  00000+0  13186-3 0  9994
2 53877  98.5534 173.3675 0005483  38.1939 321.9632 14.32722831196534
CENTISPACE-1 S5         
1 54020U 22126A   26175.25755791  .00000422  00000+0  11844-3 0  9994
2 54020  54.9970 184.6662 0014710  85.4884 274.7790 14.63021726198073
CENTISPACE-1 S6         
1 54021U 22126B   26175.25423983  .00000063  00000+0  49611-4 0  9995
2 54021  54.9973 186.5776 0016546  85.8433 274.4451 14.62294089198037
OTB-3-GAZELLE           
1 54023U 22127A   26175.20346229  .00000129  00000+0  51678-4 0  9999
2 54023  98.3946 166.8011 0013449 162.1866 197.9798 14.42676648195372
ASO-S                   
1 54029U 22129A   26175.28243167  .00000181  00000+0  55814-4 0  9996
2 54029  98.2748 180.2612 0015694  72.7115 287.5796 14.52064620196457
HJ-2E                   
1 54035U 22132A   26175.25228193  .00006577  00000+0  28619-3 0  9993
2 54035  97.3799 179.5010 0019595 350.3086   9.7769 15.22404582205491
COSMOS 2561             
1 54109U 22137A   26172.54712164  .00011071  00000+0  18648-3 0  9991
2 54109  96.9173 231.3852 0010077  21.1756 338.9912 15.51796509207021
GONETS-M 23             
1 54150U 22139A   26175.26600398  .00000048  00000+0  27700-3 0  9997
2 54150  82.5075 343.8944 0021217 203.8356 156.1743 12.42891184166526
GONETS-M 24             
1 54151U 22139B   26175.23908780  .00000036  00000+0  18723-3 0  9993
2 54151  82.4992 342.9660 0016294 213.9204 146.0835 12.42891780166524
GONETS-M 25             
1 54152U 22139C   26175.22548515  .00000042  00000+0  23479-3 0  9990
2 54152  82.5057 343.6647 0020220 212.8925 147.0898 12.42890286166523
SKIF-D                  
1 54153U 22139D   26173.25330150 -.00000007  00000+0  00000+0 0  9999
2 54153  89.9505  96.6664 0007393 197.1521 162.8744  5.00426965 64369
MATS                    
1 54227U 22147A   26174.96190010  .00003351  00000+0  23771-3 0  9996
2 54227  97.6816 176.5286 0012750 170.3766 189.7707 15.05385239198782
JILIN-1 GAOFEN 03D54    
1 54254U 22155D   26174.96216927  .00526404  13119-3  82011-3 0  9991
2 54254  97.6175 329.0174 0008056 261.7217  98.3149 16.04044550201385
EOS-6 (OCEANSAT-3)      
1 54361U 22158A   26175.28503477  .00000206  00000+0  68618-4 0  9994
2 54361  98.3544 273.3851 0000843  45.4066 314.7195 14.47003955188862
DONGPO 09               
1 54685U 22167D   26175.31366284  .00010769  00000+0  30489-3 0  9999
2 54685  97.6904 346.6393 0003635 100.2126 259.9527 15.36473848196541
DONGPO 08               
1 54686U 22167E   26175.30666317  .00009570  00000+0  29521-3 0  9992
2 54686  97.6867 343.7763 0009118 137.7285 222.4661 15.33770635196413
2022-167F               
1 54687U 22167F   26175.30226086  .00276568  32376-4  68073-3 0  9992
2 54687  97.6062   4.1226 0002297 234.3766 125.7296 15.96042025197966
DONGPO 10               
1 54689U 22167H   26175.30954890  .00009931  00000+0  29872-3 0  9991
2 54689  97.6949 345.7477 0006273  90.3358 269.8603 15.34581135196456
JILIN-1 GAOFEN 03D48    
1 54695U 22167P   26175.30369013  .00010742  00000+0  31497-3 0  9993
2 54695  97.6884 345.1219 0007617  94.1021 266.1093 15.35354513196486
STAR VIBE               
1 55009U 23001A   26175.24050549  .00013354  00000+0  30676-3 0  9995
2 55009  97.3171 239.7332 0007089  93.1070 267.0989 15.42785522193311
BRO-8                   
1 55011U 23001C   26175.28221692  .00031377  00000+0  57072-3 0  9995
2 55011  97.3214 240.5699 0006713 104.8317 255.3678 15.49444040193303
CONNECTA T1.2           
1 55012U 23001D   26175.13890759  .00037840  00000+0  64627-3 0  9991
2 55012  97.3261 245.9549 0006121  83.0380 277.1568 15.51198638193627
