OBJECT_NAME,OBJECT_ID,EPOCH,MEAN_MOTION,ECCENTRICITY,INCLINATION,RA_OF_ASC_NODE,ARG_OF_PERICENTER,MEAN_ANOMALY,EPHEMERIS_TYPE,CLASSIFICATION_TYPE,NORAD_CAT_ID,ELEMENT_SET_NO,REV_AT_EPOCH,BSTAR,MEAN_MOTION_DOT,MEAN_MOTION_DDOT
DONGPO 02,2022-098J,2026-06-24T02:26:44.005344,15.75917621,.00031353,97.5525,306.8966,253.9110,106.1810,0,U,53452,999,21588,.71131028E-3,.110825E-2,0
DONGPO 01,2022-098K,2026-06-24T03:58:55.977024,15.73611609,.00023096,97.5591,307.4745,225.5178,134.5897,0,U,53453,999,21585,.74699221E-3,.105298E-2,0
STARLINK-4400,2022-099D,2026-06-24T02:09:42.341760,15.05657325,.00007624,97.3286,293.7814,101.6852,258.4461,0,U,53468,999,21198,-.25738934E-4,-.428E-5,0
STARLINK-4621,2022-105AE,2026-06-24T03:49:23.913984,15.05651992,.00024133,97.3217,53.8555,86.7188,273.4315,0,U,53676,999,20925,.38371303E-4,.497E-5,0
SHERPA-LTC2,2022-107BG,2026-06-24T04:34:16.379040,14.69766552,.03932684,53.2348,190.6821,245.7042,110.2392,0,U,53754,999,20357,.17619205E-3,.3268E-4,0
CENTISPACE-1 S3,2022-108A,2026-06-24T04:25:34.355424,14.61260246,.00098155,53.5339,26.3250,13.9179,346.2065,0,U,53757,999,20255,.11064527E-3,.361E-5,0
CENTISPACE-1 S4,2022-108B,2026-06-24T02:19:47.427744,14.61942979,.00089858,53.5314,24.1714,2.4072,357.6945,0,U,53758,999,20257,.13093631E-3,.47E-5,0
BLUEWALKER-3,2022-111AL,2026-06-23T22:28:47.332416,15.38345711,.00057879,53.2297,2.2829,181.9520,178.1464,0,U,53807,999,21124,.17653032E-3,.6385E-4,0
YUNHAI-1 03,2022-115A,2026-06-24T07:27:37.810656,14.32722831,.00054833,98.5534,173.3675,38.1939,321.9632,0,U,53877,999,19653,.1318592E-3,.315E-5,0
CENTISPACE-1 S5,2022-126A,2026-06-24T06:10:53.003424,14.63021726,.00147102,54.9970,184.6662,85.4884,274.7790,0,U,54020,999,19807,.11844001E-3,.422E-5,0
CENTISPACE-1 S6,2022-126B,2026-06-24T06:06:06.321312,14.62294089,.00165461,54.9973,186.5776,85.8433,274.4451,0,U,54021,999,19803,.49610863E-4,.63E-6,0
OTB-3-GAZELLE,2022-127A,2026-06-24T04:52:59.141856,14.42676648,.00134499,98.3946,166.8011,162.1866,197.9798,0,U,54023,999,19537,.51678044E-4,.129E-5,0
ASO-S,2022-129A,2026-06-24T06:46:42.096288,14.52064620,.00156949,98.2748,180.2612,72.7115,287.5796,0,U,54029,999,19645,.55814311E-4,.181E-5,0
HJ-2E,2022-132A,2026-06-24T06:03:17.158752,15.22404582,.00195954,97.3799,179.5010,350.3086,9.7769,0,U,54035,999,20549,.2861947E-3,.6577E-4,0
COSMOS 2561,2022-137A,2026-06-21T13:07:51.309696,15.51796509,.0010077,96.9173,231.3852,21.1756,338.9912,0,U,54109,999,20702,.18648E-3,.11071E-3,0
GONETS-M 23,2022-139A,2026-06-24T06:23:02.743872,12.42891184,.00212174,82.5075,343.8944,203.8356,156.1743,0,U,54150,999,16652,.27699568E-3,.48E-6,0
GONETS-M 24,2022-139B,2026-06-24T05:44:17.185920,12.42891780,.00162943,82.4992,342.9660,213.9204,146.0835,0,U,54151,999,16652,.18723146E-3,.36E-6,0
GONETS-M 25,2022-139C,2026-06-24T05:24:41.916960,12.42890286,.00202207,82.5057,343.6647,212.8925,147.0898,0,U,54152,999,16652,.23478706E-3,.42E-6,0
SKIF-D,2022-139D,2026-06-22T06:04:45.249600,5.00426965,.00073935,89.9505,96.6664,197.1521,162.8744,0,U,54153,999,6436,0,-.7E-7,0
MATS,2022-147A,2026-06-23T23:05:08.168640,15.05385239,.00127505,97.6816,176.5286,170.3766,189.7707,0,U,54227,999,19878,.23771321E-3,.3351E-4,0
JILIN-1 GAOFEN 03D54,2022-155D,2026-06-23T23:05:31.424928,16.04044550,.00080566,97.6175,329.0174,261.7217,98.3149,0,U,54254,999,20138,.82010716E-3,.526404E-2,.1311884E-3
EOS-6 (OCEANSAT-3),2022-158A,2026-06-24T06:50:27.004128,14.47003955,.00008436,98.3544,273.3851,45.4066,314.7195,0,U,54361,999,18886,.68617743E-4,.206E-5,0
DONGPO 09,2022-167D,2026-06-24T07:31:40.469376,15.36473848,.00036357,97.6904,346.6393,100.2126,259.9527,0,U,54685,999,19654,.30488622E-3,.10769E-3,0
DONGPO 08,2022-167E,2026-06-24T07:21:35.697888,15.33770635,.00091183,97.6867,343.7763,137.7285,222.4661,0,U,54686,999,19641,.29520824E-3,.957E-4,0
2022-167F,2022-167F,2026-06-24T07:15:15.338304,15.96042025,.00022977,97.6062,4.1226,234.3766,125.7296,0,U,54687,999,19796,.6807258E-3,.276568E-2,.32376047E-4
DONGPO 10,2022-167H,2026-06-24T07:25:45.024960,15.34581135,.00062735,97.6949,345.7477,90.3358,269.8603,0,U,54689,999,19645,.29871541E-3,.9931E-4,0
JILIN-1 GAOFEN 03D48,2022-167P,2026-06-24T07:17:18.827232,15.35354513,.00076175,97.6884,345.1219,94.1021,266.1093,0,U,54695,999,19648,.3149661E-3,.10742E-3,0
STAR VIBE,2023-001A,2026-06-24T05:46:19.674336,15.42785522,.00070898,97.3171,239.7332,93.1070,267.0989,0,U,55009,999,19331,.30675667E-3,.13354E-3,0
BRO-8,2023-001C,2026-06-24T06:46:23.541888,15.49444040,.0006713,97.3214,240.5699,104.8317,255.3678,0,U,55011,999,19330,.57071674E-3,.31377E-3,0
CONNECTA T1.2,2023-001D,2026-06-24T03:20:01.615776,15.51198638,.00061219,97.3261,245.9549,83.0380,277.1568,0,U,55012,999,19362,.64627406E-3,.3784E-3,0
